[{"CCSDS_OMM_VERS": "3.0", "COMMENT": "GENERATED VIA SPACE-TRACK.ORG API", "CREATION_DATE": "2019-12-18T20:00:13", "ORIGINATOR": "18 SPCS", "OBJECT_NAME": "TBA - TO BE ASSIGNED", "OBJECT_ID": "2019-092F", "CENTER_NAME": "EARTH", "REF_FRAME": "TEME", "TIME_SYSTEM": "UTC", "MEAN_ELEMENT_THEORY": "SGP4", "EPOCH": "2019-12-18T19:04:34.322016", "MEAN_MOTION": "15.14881465", "ECCENTRICITY": "0.00105520", "INCLINATION": "97.4636", "RA_OF_ASC_NODE": "174.2325", "ARG_OF_PERICENTER": "304.0949", "MEAN_ANOMALY": "168.7849", "EPHEMERIS_TYPE": "0", "CLASSIFICATION_TYPE": "U", "NORAD_CAT_ID": "44878", "ELEMENT_SET_NO": "999", "REV_AT_EPOCH": "2", "BSTAR": "0.00000000000000", "MEAN_MOTION_DOT": "-0.00000066", "MEAN_MOTION_DDOT": "0.0000000000000", "SEMIMAJOR_AXIS": "6899.475", "PERIOD": "95.056", "APOAPSIS": "528.620", "PERIAPSIS": "514.060", "OBJECT_TYPE": "TBA", "RCS_SIZE": null, "COUNTRY_CODE": null, "LAUNCH_DATE": null, "SITE": null, "DECAY_DATE": null, "FILE": "2669031", "GP_ID": "145073485", "TLE_LINE0": "0 TBA - TO BE ASSIGNED", "TLE_LINE1": "1 44878U 19092F   19352.79484169 -.00000066  00000-0  00000+0 0  9992", "TLE_LINE2": "2 44878  97.4636 174.2325 0010552 304.0949 168.7849 15.14881465    22"}, {"CCSDS_OMM_VERS": "3.0", "COMMENT": "GENERATED VIA SPACE-TRACK.ORG API", "CREATION_DATE": "2019-12-18T20:00:13", "ORIGINATOR": "18 SPCS", "OBJECT_NAME": "TBA - TO BE ASSIGNED", "OBJECT_ID": "2019-092F", "CENTER_NAME": "EARTH", "REF_FRAME": "TEME", "TIME_SYSTEM": "UTC", "MEAN_ELEMENT_THEORY": "SGP4", "EPOCH": "2019-12-18T19:04:34.322016", "MEAN_MOTION": "15.14881465", "ECCENTRICITY": "0.00105520", "INCLINATION": "97.4636", "RA_OF_ASC_NODE": "174.2325", "ARG_OF_PERICENTER": "304.0949", "MEAN_ANOMALY": "168.7849", "EPHEMERIS_TYPE": "0", "CLASSIFICATION_TYPE": "U", "NORAD_CAT_ID": "44878", "ELEMENT_SET_NO": "999", "REV_AT_EPOCH": "2", "BSTAR": "0.00000000000000", "MEAN_MOTION_DOT": "-0.00000066", "MEAN_MOTION_DDOT": "0.0000000000000", "SEMIMAJOR_AXIS": "6899.475", "PERIOD": "95.056", "APOAPSIS": "528.620", "PERIAPSIS": "514.060", "OBJECT_TYPE": "TBA", "RCS_SIZE": null, "COUNTRY_CODE": null, "LAUNCH_DATE": null, "SITE": null, "DECAY_DATE": null, "FILE": "2669034", "GP_ID": "145073488", "TLE_LINE0": "0 TBA - TO BE ASSIGNED", "TLE_LINE1": "1 44878U 19092F   19352.79484169 -.00000066  00000-0  00000+0 0  9992", "TLE_LINE2": "2 44878  97.4636 174.2325 0010552 304.0949 168.7849 15.14881465    22"}, {"CCSDS_OMM_VERS": "3.0", "COMMENT": "GENERATED VIA SPACE-TRACK.ORG API", "CREATION_DATE": "2019-12-18T22:20:15", "ORIGINATOR": "18 SPCS", "OBJECT_NAME": "TBA - TO BE ASSIGNED", "OBJECT_ID": "2019-092F", "CENTER_NAME": "EARTH", "REF_FRAME": "TEME", "TIME_SYSTEM": "UTC", "MEAN_ELEMENT_THEORY": "SGP4", "EPOCH": "2019-12-18T20:09:51.284160", "MEAN_MOTION": "15.14945362", "ECCENTRICITY": "0.00095130", "INCLINATION": "97.4669", "RA_OF_ASC_NODE": "174.2794", "ARG_OF_PERICENTER": "300.0755", "MEAN_ANOMALY": "59.9548", "EPHEMERIS_TYPE": "0", "CLASSIFICATION_TYPE": "U", "NORAD_CAT_ID": "44878", "ELEMENT_SET_NO": "999", "REV_AT_EPOCH": "3", "BSTAR": "0.00000000000000", "MEAN_MOTION_DOT": "-0.00000066", "MEAN_MOTION_DDOT": "0.0000000000000", "SEMIMAJOR_AXIS": "6899.281", "PERIOD": "95.052", "APOAPSIS": "527.709", "PERIAPSIS": "514.583", "OBJECT_TYPE": "TBA", "RCS_SIZE": null, "COUNTRY_CODE": null, "LAUNCH_DATE": null, "SITE": null, "DECAY_DATE": null, "FILE": "2669053", "GP_ID": "145073689", "TLE_LINE0": "0 TBA - TO BE ASSIGNED", "TLE_LINE1": "1 44878U 19092F   19352.84017690 -.00000066  00000-0  00000+0 0  9999", "TLE_LINE2": "2 44878  97.4669 174.2794 0009513 300.0755  59.9548 15.14945362    39"}, {"CCSDS_OMM_VERS": "3.0", "COMMENT": "GENERATED VIA SPACE-TRACK.ORG API", "CREATION_DATE": "2019-12-19T04:45:16", "ORIGINATOR": "18 SPCS", "OBJECT_NAME": "TBA - TO BE ASSIGNED", "OBJECT_ID": "2019-092F", "CENTER_NAME": "EARTH", "REF_FRAME": "TEME", "TIME_SYSTEM": "UTC", "MEAN_ELEMENT_THEORY": "SGP4", "EPOCH": "2019-12-18T21:44:58.058592", "MEAN_MOTION": "15.14996130", "ECCENTRICITY": "0.00105230", "INCLINATION": "97.4703", "RA_OF_ASC_NODE": "174.3481", "ARG_OF_PERICENTER": "294.6328", "MEAN_ANOMALY": "65.4417", "EPHEMERIS_TYPE": "0", "CLASSIFICATION_TYPE": "U", "NORAD_CAT_ID": "44878", "ELEMENT_SET_NO": "999", "REV_AT_EPOCH": "4", "BSTAR": "0.00000000000000", "MEAN_MOTION_DOT": "-0.00000066", "MEAN_MOTION_DDOT": "0.0000000000000", "SEMIMAJOR_AXIS": "6899.127", "PERIOD": "95.049", "APOAPSIS": "528.252", "PERIAPSIS": "513.732", "OBJECT_TYPE": "TBA", "RCS_SIZE": null, "COUNTRY_CODE": null, "LAUNCH_DATE": null, "SITE": null, "DECAY_DATE": null, "FILE": "2669174", "GP_ID": "145095515", "TLE_LINE0": "0 TBA - TO BE ASSIGNED", "TLE_LINE1": "1 44878U 19092F   19352.90622753 -.00000066 +00000-0 +00000-0 0  9999", "TLE_LINE2": "2 44878 097.4703 174.3481 0010523 294.6328 065.4417 15.14996130000046"}, {"CCSDS_OMM_VERS": "3.0", "COMMENT": "GENERATED VIA SPACE-TRACK.ORG API", "CREATION_DATE": "2019-12-19T00:50:12", "ORIGINATOR": "18 SPCS", "OBJECT_NAME": "TBA - TO BE ASSIGNED", "OBJECT_ID": "2019-092F", "CENTER_NAME": "EARTH", "REF_FRAME": "TEME", "TIME_SYSTEM": "UTC", "MEAN_ELEMENT_THEORY": "SGP4", "EPOCH": "2019-12-18T23:20:02.401728", "MEAN_MOTION": "15.15147428", "ECCENTRICITY": "0.00120610", "INCLINATION": "97.4621", "RA_OF_ASC_NODE": "174.4050", "ARG_OF_PERICENTER": "268.4650", "MEAN_ANOMALY": "91.5629", "EPHEMERIS_TYPE": "0", "CLASSIFICATION_TYPE": "U", "NORAD_CAT_ID": "44878", "ELEMENT_SET_NO": "999", "REV_AT_EPOCH": "5", "BSTAR": "0.00000000000000", "MEAN_MOTION_DOT": "-0.00000066", "MEAN_MOTION_DDOT": "0.0000000000000", "SEMIMAJOR_AXIS": "6898.668", "PERIOD": "95.040", "APOAPSIS": "528.853", "PERIAPSIS": "512.212", "OBJECT_TYPE": "TBA", "RCS_SIZE": null, "COUNTRY_CODE": null, "LAUNCH_DATE": null, "SITE": null, "DECAY_DATE": null, "FILE": "2669165", "GP_ID": "145076192", "TLE_LINE0": "0 TBA - TO BE ASSIGNED", "TLE_LINE1": "1 44878U 19092F   19352.97225002 -.00000066  00000-0  00000+0 0  9991", "TLE_LINE2": "2 44878  97.4621 174.4050 0012061 268.4650  91.5629 15.15147428    59"}, {"CCSDS_OMM_VERS": "3.0", "COMMENT": "GENERATED VIA SPACE-TRACK.ORG API", "CREATION_DATE": "2019-12-19T00:20:12", "ORIGINATOR": "18 SPCS", "OBJECT_NAME": "TBA - TO BE ASSIGNED", "OBJECT_ID": "2019-092F", "CENTER_NAME": "EARTH", "REF_FRAME": "TEME", "TIME_SYSTEM": "UTC", "MEAN_ELEMENT_THEORY": "SGP4", "EPOCH": "2019-12-19T00:04:04.325376", "MEAN_MOTION": "15.15039438", "ECCENTRICITY": "0.00104920", "INCLINATION": "97.4673", "RA_OF_ASC_NODE": "174.4338", "ARG_OF_PERICENTER": "274.3638", "MEAN_ANOMALY": "252.3093", "EPHEMERIS_TYPE": "0", "CLASSIFICATION_TYPE": "U", "NORAD_CAT_ID": "44878", "ELEMENT_SET_NO": "999", "REV_AT_EPOCH": "5", "BSTAR": "0.00000000000000", "MEAN_MOTION_DOT": "-0.00000066", "MEAN_MOTION_DDOT": "0.0000000000000", "SEMIMAJOR_AXIS": "6898.995", "PERIOD": "95.047", "APOAPSIS": "528.099", "PERIAPSIS": "513.622", "OBJECT_TYPE": "TBA", "RCS_SIZE": null, "COUNTRY_CODE": null, "LAUNCH_DATE": null, "SITE": null, "DECAY_DATE": null, "FILE": "2669161", "GP_ID": "145076187", "TLE_LINE0": "0 TBA - TO BE ASSIGNED", "TLE_LINE1": "1 44878U 19092F   19353.00282784 -.00000066  00000-0  00000+0 0  9996", "TLE_LINE2": "2 44878  97.4673 174.4338 0010492 274.3638 252.3093 15.15039438    56"}, {"CCSDS_OMM_VERS": "3.0", "COMMENT": "GENERATED VIA SPACE-TRACK.ORG API", "CREATION_DATE": "2019-12-19T12:40:17", "ORIGINATOR": "18 SPCS", "OBJECT_NAME": "TBA - TO BE ASSIGNED", "OBJECT_ID": "2019-092F", "CENTER_NAME": "EARTH", "REF_FRAME": "TEME", "TIME_SYSTEM": "UTC", "MEAN_ELEMENT_THEORY": "SGP4", "EPOCH": "2019-12-19T12:00:49.597056", "MEAN_MOTION": "15.15154709", "ECCENTRICITY": "0.00126830", "INCLINATION": "97.4619", "RA_OF_ASC_NODE": "174.9251", "ARG_OF_PERICENTER": "263.0821", "MEAN_ANOMALY": "96.8968", "EPHEMERIS_TYPE": "0", "CLASSIFICATION_TYPE": "U", "NORAD_CAT_ID": "44878", "ELEMENT_SET_NO": "999", "REV_AT_EPOCH": "13", "BSTAR": "0.00000000000000", "MEAN_MOTION_DOT": "-0.00000066", "MEAN_MOTION_DDOT": "0.0000000000000", "SEMIMAJOR_AXIS": "6898.645", "PERIOD": "95.039", "APOAPSIS": "529.260", "PERIAPSIS": "511.761", "OBJECT_TYPE": "TBA", "RCS_SIZE": null, "COUNTRY_CODE": null, "LAUNCH_DATE": null, "SITE": null, "DECAY_DATE": null, "FILE": "2669490", "GP_ID": "145103160", "TLE_LINE0": "0 TBA - TO BE ASSIGNED", "TLE_LINE1": "1 44878U 19092F   19353.50057404 -.00000066  00000-0  00000+0 0  9990", "TLE_LINE2": "2 44878  97.4619 174.9251 0012683 263.0821  96.8968 15.15154709   138"}, {"CCSDS_OMM_VERS": "3.0", "COMMENT": "GENERATED VIA SPACE-TRACK.ORG API", "CREATION_DATE": "2019-12-20T05:18:04", "ORIGINATOR": "18 SPCS", "OBJECT_NAME": "OBJECT F", "OBJECT_ID": "2019-092F", "CENTER_NAME": "EARTH", "REF_FRAME": "TEME", "TIME_SYSTEM": "UTC", "MEAN_ELEMENT_THEORY": "SGP4", "EPOCH": "2019-12-19T16:46:07.587552", "MEAN_MOTION": "15.15157041", "ECCENTRICITY": "0.00126210", "INCLINATION": "97.4616", "RA_OF_ASC_NODE": "175.1207", "ARG_OF_PERICENTER": "262.4264", "MEAN_ANOMALY": "97.5545", "EPHEMERIS_TYPE": "0", "CLASSIFICATION_TYPE": "U", "NORAD_CAT_ID": "44878", "ELEMENT_SET_NO": "999", "REV_AT_EPOCH": "16", "BSTAR": "0.00000000000000", "MEAN_MOTION_DOT": "-0.00000066", "MEAN_MOTION_DDOT": "0.0000000000000", "SEMIMAJOR_AXIS": "6898.638", "PERIOD": "95.039", "APOAPSIS": "529.210", "PERIAPSIS": "511.797", "OBJECT_TYPE": "TBA", "RCS_SIZE": null, "COUNTRY_CODE": "TBD", "LAUNCH_DATE": "2019-12-18", "SITE": "FRGUI", "DECAY_DATE": null, "FILE": "2669774", "GP_ID": "145147962", "TLE_LINE0": "0 OBJECT F", "TLE_LINE1": "1 44878U 19092F   19353.69869893 -.00000066 +00000-0 +00000-0 0  9994", "TLE_LINE2": "2 44878 097.4616 175.1207 0012621 262.4264 097.5545 15.15157041000169"}]